GLOBALSTAR M094 [+]     
1 39074U 13005C   23252.00583957 -.00000091  00000+0  69776-4 0  9992
2 39074  51.9989 352.5957 0000440  96.2286 263.8631 12.62267175490666
GLOBALSTAR M096 [+]     
1 39075U 13005D   23251.70214488 -.00000100  00000+0  22373-4 0  9992
2 39075  52.0087  41.5250 0000438  86.0371 274.0545 12.62268226489527
GLOBALSTAR M078 [+]     
1 39076U 13005E   23251.99220522 -.00000157  00000+0 -29673-3 0  9992
2 39076  51.9866 126.0319 0000848 149.8410 210.2506 12.62270266488393
GLOBALSTAR M095 [+]     
1 39077U 13005F   23252.09831595 -.00000098  00000+0  29460-4 0  9991
2 39077  51.9790 123.2313 0000249 140.9797 219.1088 12.62268582488412
GLOBALSTAR M087 [+]     
1 52888U 22064A   23251.87834015 -.00000103  00000+0  47866-4 0  9993
2 52888  51.9750 112.7617 0009797  12.2230 347.8907 13.37552162 59745
